#dP2020  8 30  0  0  0.00000000      96 __u+U ITR00 FIT  IAC
## 2121      0.00000000   900.00000000 59091 0.0000000000000
+  113   C01C02C03C04C05C06C07C08C09C10C11C12C13C14C16C19C20
+        C21C22C23C24C25C26C27C28C29C30C32C33C34C35C36C37E01
+        E02E03E04E05E07E08E09E11E12E13E14E15E18E19E21E24E25
+        E26E27E30E31E33E36G01G02G03G04G05G06G07G08G09G10G11
+        G12G13G15G16G17G18G19G20G21G22G24G25G26G27G28G29G30
+        G31G32J01J02J03R01R02R03R04R05R07R08R09R11R12R13R14
+        R15R16R17R18R19R20R21R22R23R24R26  0  0  0  0  0  0
++        13 12 13 14 13  9  9  8  8  8  8  8  8  8  8  8  8
++         8  8  8  8  8  8  8  8  8  8  8  8  9  8  8  8  4
++         5  5  4  4  5  4  4  5  4  5  4  4  4  4  4  5  5
++         5  5  5  4  5  5  3  4  3  3  4  3  4  4  4  3  4
++         3  4  4  4  4  3  3  4  4  3  3  3  3  3  3  4  3
++         3  3  8  8  8  6  5  5  7  5  5  5  5  6  5  6  5
++         5  6  5  5  6  6  6  6  6  6  8  0  0  0  0  0  0
%c M  cc GPS ccc cccc cccc cccc cccc ccccc ccccc ccccc ccccc
%c cc cc ccc ccc cccc cccc cccc cccc ccccc ccccc ccccc ccccc
%f  0.0000000  0.000000000  0.00000000000  0.000000000000000
%f  0.0000000  0.000000000  0.00000000000  0.000000000000000
%i    0    0    0    0      0      0      0      0         0
%i    0    0    0    0      0      0      0      0         0
/* INFORMATION & ANALYSIS CENTER (IAC)            RAPID DATA
/* S/V CLOCKS ARE ALIGNED TO GNSS TIME                      
/* G:C1WC2W R:C1PC2P E:C1XC5X C:C2IC6I J:C1CC2S             
/* PCV:IGS14_2118 OL/AL:FES2004  NONE     YN ORB:CoN CLK:CoN
*  2020 08 30 19 30  0.00000000
PC01 -34364.438814  24475.306536    522.908873   -183.699900
PC02   4375.728231  41901.679940   -951.840369    374.912465
PC03 -14659.249020  39507.598178   -857.441569    799.258422
PC04 -39601.170080  14494.796597    190.682136   -320.166089
PC05  21913.099270  35995.943626  -1193.901751   -154.429747
PC06 -11268.811962  37234.556246 -15255.518237    226.534469
PC07 -12766.836385  23181.138480  33046.877483     30.388157
PC08 -25711.243655  28153.830997 -18317.051009   -486.531496
PC09  -3159.124183  41784.885808  -1556.070261    778.171134
PC10   2343.620392  28602.425503  31218.748779   -198.513927
PC11   9326.763062 -25821.391563  -4767.202914   -589.191009
PC12  15873.807715 -11926.561922 -19565.018593    489.484546
PC13 -11984.521660  29061.469633 -28166.846700    622.546417
PC14   4452.040680 -16611.035461  21988.412592    906.740542
PC16  -8259.016265  39382.763744 -12131.356405   -588.885534
PC19   5110.545816  20997.650048 -17645.419923    528.528031
PC20 -12078.040533  10462.695685 -22865.018638   -838.622290
PC21  22778.709499   6824.639932  14637.309395   -671.175304
PC22  19719.726284  19662.769836  -2056.351782   -764.643517
PC23 -15389.273967 -10658.113250 -20679.528549   -854.020745
PC24  22527.029352 -13754.433362  -9026.406819   -734.594673
PC25   4115.078319 -17456.516426 -21373.204489   -739.709030
PC26  26633.087439  -3342.223346   7574.531021    811.939362
PC27 -16290.844398   1090.631075  22610.468107    390.592889
PC28  -8943.658792 -18631.018608  18745.509795   -176.280951
PC29  -2564.580983  27512.915494  -3926.174816    277.102245
PC30 -13484.118541  20339.322899  13518.680705    368.697625
PC32 -22816.203634  -6654.231991 -14606.418186   -892.706730
PC33  -5078.476169 -20952.808245  17709.139112   -794.451614
PC34  13364.830681 -20730.697449 -13077.960755   -866.005961
PC35   9511.630371  18498.823555 -18594.426070   -677.405798
PC36  -4797.707154  17396.885461  21317.749154   -919.089702
PC37 -26583.533673   2264.394217  -8174.029287   -917.987335
PE01   6333.755425  16802.522906  23541.242876   -930.501987
PE02  -6462.803066 -16791.090291 -23498.107772    158.115970
PE03  -7404.223312 -28161.299906   5269.414652   -337.463648
PE04  17832.384492  19880.368168  12775.138174   -597.109498
PE05   7502.921115 -20034.597655  20456.951016   -350.248624
PE07 -17895.262221    290.998770 -23568.995127   -429.625424
PE08 -17947.780053 -19591.460789 -13029.535375   6127.641051
PE09  17742.071430   -447.048656  23696.448295   5946.833751
PE11  21942.239611 -10322.744264 -16991.619194   5157.557514
PE12  13103.803023   9649.379076 -24729.477506   5629.952529
PE13 -21821.530815  10207.647212  17200.579836    403.355575
PE14  15075.857780 -17904.827353 -19990.949305  -1138.530935
PE15 -13210.967983  -9372.075551  24775.638091    854.372404
PE18  -4217.770697  25311.626567   6988.579760  -1244.718756
PE19   5891.178983  28069.439457  -7317.562597     66.207880
PE21 -15380.306879  12665.025733  21896.350905   -618.709608
PE24  28730.749421   -655.626420  -7062.475157   5269.943150
PE25  15542.099404 -12584.602911 -21810.814666   -515.884563
PE26 -17476.303251  23878.588244   -992.321286   2782.920219
PE27 -28632.659867   1055.119591   7444.592213    144.575027
PE30 -24614.116599 -11521.822525 -11735.576781   3623.998479
PE31  24987.503715  11130.928340  11332.424948   -473.866489
PE33  -3168.705362  23446.754178 -17788.429206   -463.183351
PE36  17614.729611 -23781.196149    469.882522    513.927704
PG01 -10822.713890  19937.922871 -13772.203101     35.731567
PG02  21553.463611 -14203.297867  -5533.135791   -509.621909
PG03   -846.017393  15677.932792 -21514.263855   -285.163823
PG04  -1034.886039  25958.487952  -5421.350788   -130.464625
PG05  20621.680365  -4573.075372  16068.703517    -19.991440
PG06  20343.996829  -1457.902484 -16982.113338   -321.038635
PG07   6387.355797  14470.826628  21608.980167   -361.796869
PG08  -7405.318083  20324.378161  15245.044042    -46.265142
PG09   8104.192547  24568.203315   5923.644430   -278.575034
PG10 -23774.968632 -11788.898460   3000.392866   -441.702308
PG11 -11305.029041  24237.995673     54.708995   -178.058100
PG12   3088.731191 -14987.584280 -21955.903455     73.702166
PG13  13074.661590 -12626.188897  19205.986437     40.661940
PG15   5377.850533 -21508.995601  14016.262756   -207.038977
PG16 -19213.547252   3742.068954  17941.139408   -202.585599
PG17  13546.451444  12387.151007 -18789.302287    318.765513
PG18  -6361.753758 -13976.763975  21653.932233    280.710571
PG19  14801.416677   4350.972164 -21923.456753   -111.461289
PG20 -17147.002225 -14905.423980  13872.115045    526.889372
PG21 -22333.872157   8853.941481  11749.674809     41.636726
PG22  -9201.338600  13361.866885 -20811.396452   -759.336854
PG24  11914.257186 -21086.080506 -10658.906088    -17.900230
PG25  -9510.308346 -17373.562739 -18057.867026     42.305477
PG26 -25445.662618  -3856.725749   7004.916879    270.414231
PG27 -12865.266458   9666.835363  20914.821268   -383.880307
PG28  22860.666147  13287.196908   1898.945891    684.061547
PG29  -3707.923106 -26116.340091   2852.566885   -184.170512
PG30  15724.722260   6991.568955  20331.480568   -292.409263
PG31 -21774.157373   2642.803644 -15341.061623    -65.551205
PG32 -15095.991376 -10791.792214 -18974.199929    339.886982
PJ01 -20525.831006  20701.660172 -25872.021340   -183.713152
PJ02 -31050.577248  22825.583302  21937.455106     -3.020694
PJ03 -28533.318349  26734.538124  20869.581199     -0.773617
PR01  -4420.308809  11696.326397 -22236.443856     66.839035
PR02  11280.053396  21354.860909  -8083.243266    443.379587
PR03  17641.380789  15825.535410   9407.834226     21.153974
PR04  13781.053642   1529.907382  21433.261440     52.854781
PR05   2238.323514 -13688.790721  21420.409304     56.708380
PR07 -17666.877790 -15560.131733  -9840.146954    -39.735716
PR08 -13867.625036  -1527.397656 -21307.808490    -54.286625
PR09  -9774.243591  -9378.310788 -21579.093486    151.828521
PR11 -24561.045546   5333.962733   4212.358987    -35.911156
PR12 -13996.117442  10684.516976  18496.624436    159.760627
PR13   5068.091916  10253.558738  22791.978859    -43.177353
PR14  21283.251211   3827.802964  13564.049613     55.017223
PR15  24850.637639  -4727.377629  -3271.817415    106.979392
PR16  12978.322982 -11205.839286 -18849.664035     -5.862179
PR17   8103.051922   7658.372866 -22942.847784    354.015879
PR18  13623.661172  -9842.668830 -19196.382368     47.637246
PR19  12597.889334 -21417.746471  -5742.185236   -109.066739
PR20   3140.809025 -21366.034467  13605.051779   -420.575585
PR21  -8548.150148  -6547.955183  23116.597314   -148.744382
PR22 -13736.730700  10837.044371  18503.950270    -70.612262
PR23  -9469.628428  23637.265456  -1601.378616    328.765909
PR24  -2251.323591  21172.398094 -14053.049350     11.539892
PR26   5685.946679 -23199.522781   8908.926292   -361.846643
EOF
